NORAD_CAT_ID,OBJECT_NAME,OBJECT_TYPE,EPOCH,MEAN_MOTION,ECCENTRICITY,INCLINATION,RA_OF_ASC_NODE,ARG_OF_PERICENTER,MEAN_ANOMALY,BSTAR,MEAN_MOTION_DOT,MEAN_MOTION_DDOT,TLE_LINE0,TLE_LINE1,TLE_LINE2,SEMIMAJOR_AXIS,PERIOD,APOGEE,PERIGEE,DECAYED
52000.0,STARLINK-3653,PAYLOAD,2022-11-01 12:12:53,15.08834506,0.0001748,53.2184,114.6883,51.5459,308.569,7.819399999999999e-05,9.56e-06,0.0,0 STARLINK-3653,1 52000U 22025AW  22305.50894976  .00000956  00000-0  78194-4 0  9991,2 52000  53.2184 114.6883 0001748  51.5459 308.5690 15.08834506 36114,6917.897,95.438,540.971,538.553,0.0
52000.0,STARLINK-3653,PAYLOAD,2022-11-01 18:34:25,15.08839995,0.0001726,53.2185,113.499,51.9793,308.1355,0.00011892,1.605e-05,0.0,0 STARLINK-3653,1 52000U 22025AW  22305.77390567  .00001605  00000-0  11892-3 0  9990,2 52000  53.2185 113.4990 0001726  51.9793 308.1355 15.08839995 37686,6917.88,95.438,540.939,538.5509999999998,0.0
52000.0,STARLINK-3653,PAYLOAD,2022-11-02 05:42:07,15.08845869,0.0001710999999999,53.2182,111.4176,50.9681,309.1463,9.302e-05,1.193e-05,0.0,0 STARLINK-3653,1 52000U 22025AW  22306.23758223  .00001193  00000-0  93020-4 0  9995,2 52000  53.2182 111.4176 0001711  50.9681 309.1463 15.08845869 36223,6917.861999999999,95.437,540.911,538.544,0.0
52000.0,STARLINK-3653,PAYLOAD,2022-11-02 20:00:35,15.08840964,0.000177,53.2186,108.7415,49.9633,310.1515,1.76e-05,-8e-08,0.0,0 STARLINK-3653,1 52000U 22025AW  22306.83374875 -.00000008  00000-0  17600-4 0  9993,2 52000  53.2186 108.7415 0001770  49.9633 310.1515 15.08840964 36313,6917.877,95.437,540.967,538.518,0.0
52000.0,STARLINK-3653,PAYLOAD,2022-11-03 11:54:26,15.088447699999998,0.0001659,53.2192,105.7683,46.6418,313.4712,8.8881e-05,1.127e-05,0.0,0 STARLINK-3653,1 52000U 22025AW  22307.49614447  .00001127  00000-0  88881-4 0  9999,2 52000  53.2192 105.7683 0001659  46.6418 313.4712 15.08844770 36410,6917.866,95.437,540.878,538.5830000000002,0.0
52000.0,STARLINK-3653,PAYLOAD,2022-11-03 13:29:49,15.08847458,0.0001766,53.2186,105.4703,52.6122,307.503,0.00010652,1.408e-05,0.0,0 STARLINK-3653,1 52000U 22025AW  22307.56238232  .00001408  00000-0  10652-3 0  9993,2 52000  53.2186 105.4703 0001766  52.6122 307.5030 15.08847458 37954,6917.858,95.437,540.944,538.501,0.0
52000.0,STARLINK-3653,PAYLOAD,2022-11-03 19:51:22,15.08844653,0.0001754,53.2188,104.2814,53.7852,306.3302,3.4458e-05,2.6e-06,0.0,0 STARLINK-3653,1 52000U 22025AW  22307.82734555  .00000260  00000-0  34458-4 0  9997,2 52000  53.2188 104.2814 0001754  53.7852 306.3302 15.08844653 36463,6917.866,95.437,540.945,538.518,0.0
52000.0,STARLINK-3653,PAYLOAD,2022-11-04 10:09:50,15.08846746,0.0001389,53.2202,101.6046,45.3174,314.7932,0.00014232,1.978e-05,0.0,0 STARLINK-3653,1 52000U 22025AW  22308.42349848  .00001978  00000-0  14232-3 0  9995,2 52000  53.2202 101.6046 0001389  45.3174 314.7932 15.08846746 36553,6917.86,95.437,540.686,538.764,0.0
52000.0,STARLINK-3653,PAYLOAD,2022-11-04 13:20:36,15.08845711,0.0001439,53.2196,101.0093,49.2048,310.9069,0.00014559,2.03e-05,0.0,0 STARLINK-3653,1 52000U 22025AW  22308.55597940  .00002030  00000-0  14559-3 0  9999,2 52000  53.2196 101.0093 0001439  49.2048 310.9069 15.08845711 36572,6917.863,95.437,540.7230000000002,538.732,0.0
52000.0,STARLINK-3653,PAYLOAD,2022-11-05 11:36:00,15.0884227,0.0001693,53.2196,96.8458,30.7455,329.3636,7.5552e-06,-1.68e-06,0.0,0 STARLINK-3653,1 52000U 22025AW  22309.48334383 -.00000168  00000-0  75552-5 0  9995,2 52000  53.2196  96.8458 0001693  30.7455 329.3636 15.08842270 36714,6917.873000000001,95.437,540.91,538.567,0.0
52000.0,STARLINK-3653,PAYLOAD,2022-11-05 16:22:10,15.08840145,0.000212,53.2183,95.9543,54.8851,305.2340000000001,1.8618e-06,-2.59e-06,0.0,0 STARLINK-3653,1 52000U 22025AW  22309.68206675 -.00000259  00000-0  18618-5 0  9990,2 52000  53.2183  95.9543 0002120  54.8851 305.2340 15.08840145 38275,6917.88,95.438,541.212,538.278,0.0
52000.0,STARLINK-3653,PAYLOAD,2022-11-06 05:05:16,15.08834327,0.0001939,53.2174,93.5749,61.3706,298.7481,-5.2887e-05,-1.13e-05,0.0,0 STARLINK-3653,1 52000U 22025AW  22310.21199220 -.00001130  00000-0 -52887-4 0  9993,2 52000  53.2174  93.5749 0001939  61.3706 298.7481 15.08834327 38352,6917.898,95.438,541.104,538.4209999999998,0.0
52000.0,STARLINK-3653,PAYLOAD,2022-11-06 13:02:11,15.08842586,0.0001801,53.2197,92.09,50.0147,310.1003,9.8245e-06,-1.32e-06,0.0,0 STARLINK-3653,1 52000U 22025AW  22310.54318519 -.00000132  00000-0  98245-5 0  9992,2 52000  53.2197  92.0900 0001801  50.0147 310.1003 15.08842586 36872,6917.871999999999,95.437,540.9830000000002,538.492,0.0
52000.0,STARLINK-3653,PAYLOAD,2022-11-07 04:56:02,15.088312599999998,0.0001879,53.2198,89.1176,47.0899,313.025,0.00017902,2.561e-05,0.0,0 STARLINK-3653,1 52000U 22025AW  22311.20558904  .00002561  00000-0  17902-3 0  9996,2 52000  53.2198  89.1176 0001879  47.0899 313.0250 15.08831260 38505,6917.906999999997,95.438,541.072,538.472,0.0
52000.0,STARLINK-3653,PAYLOAD,2022-11-07 19:14:31,15.08821839,0.0001814,53.2207,86.4425,43.1769,316.9365,0.00025004,3.692e-05,0.0,0 STARLINK-3653,1 52000U 22025AW  22311.80175821  .00003692  00000-0  25004-3 0  9993,2 52000  53.2207  86.4425 0001814  43.1769 316.9365 15.08821839 38594,6917.936,95.439,541.056,538.5459999999998,0.0
52000.0,STARLINK-3653,PAYLOAD,2022-11-08 01:36:03,15.08835416,0.0001807,53.22,85.2513,48.2835,311.8311,0.00013681,1.89e-05,0.0,0 STARLINK-3653,1 52000U 22025AW  22312.06671256  .00001890  00000-0  13681-3 0  9991,2 52000  53.2200  85.2513 0001807  48.2835 311.8311 15.08835416 38630,6917.894,95.438,541.009,538.509,0.0
52000.0,STARLINK-3653,PAYLOAD,2022-11-08 04:46:49,15.08845315,0.0002057,53.2209,84.6594,33.0415,327.0705,0.00012987,1.7800000000000002e-05,0.0,0 STARLINK-3653,1 52000U 22025AW  22312.19918698  .00001780  00000-0  12987-3 0  9995,2 52000  53.2209  84.6594 0002057  33.0415 327.0705 15.08845315 38652,6917.864000000001,95.437,541.1519999999998,538.306,0.0
52000.0,STARLINK-3653,PAYLOAD,2022-11-08 09:32:58,15.08850492,0.0002012,53.2209,83.7672,34.9072,325.2051,0.00017303,2.467e-05,0.0,0 STARLINK-3653,1 52000U 22025AW  22312.39790223  .00002467  00000-0  17303-3 0  9999,2 52000  53.2209  83.7672 0002012  34.9072 325.2051 15.08850492 37159,6917.848000000001,95.437,541.105,538.321,0.0
52000.0,STARLINK-3653,PAYLOAD,2022-11-08 15:54:31,15.08849492,0.0001813,53.2199,82.5759,40.8281,319.2847,0.00016338,2.314e-05,0.0,0 STARLINK-3653,1 52000U 22025AW  22312.66286381  .00002314  00000-0  16338-3 0  9992,2 52000  53.2199  82.5759 0001813  40.8281 319.2847 15.08849492 37194,6917.851,95.437,540.971,538.462,0.0
52000.0,STARLINK-3653,PAYLOAD,2022-11-09 06:12:59,15.08841503,0.0001725,53.2208,79.9032,40.2485,319.8635,-0.00013641,-2.458e-05,0.0,0 STARLINK-3653,1 52000U 22025AW  22313.25902160 -.00002458  00000-0 -13641-3 0  9993,2 52000  53.2208  79.9032 0001725  40.2485 319.8635 15.08841503 38817,6917.876,95.437,540.934,538.547,0.0
52000.0,STARLINK-3653,PAYLOAD,2022-11-09 14:09:55,15.08842632,0.0001852,53.218,78.4107,50.684,309.4317,5.9358e-06,-1.94e-06,0.0,0 STARLINK-3653,1 52000U 22025AW  22313.59022216 -.00000194  00000-0  59358-5 0  9996,2 52000  53.2180  78.4107 0001852  50.6840 309.4317 15.08842632 37336,6917.871999999999,95.437,541.019,538.456,0.0
52000.0,STARLINK-3653,PAYLOAD,2022-11-09 18:56:04,15.0883595,0.000181,53.2179,77.5204,45.9557,314.1584,-6.2862e-05,-1.288e-05,0.0,0 STARLINK-3653,1 52000U 22025AW  22313.78894612 -.00001288  00000-0 -62862-4 0  9993,2 52000  53.2179  77.5204 0001810  45.9557 314.1584 15.08835950 37365,6917.893,95.438,541.01,538.506,0.0
52000.0,STARLINK-3653,PAYLOAD,2022-11-10 10:49:56,15.08833095,0.0002013,53.2178,74.5465,43.15,316.965,-0.00021379,-3.688e-05,0.0,0 STARLINK-3653,1 52000U 22025AW  22314.45134878 -.00003688  00000-0 -21379-3 0  9992,2 52000  53.2178  74.5465 0002013  43.1500 316.9650 15.08833095 37467,6917.901,95.438,541.159,538.374,0.0
52000.0,STARLINK-3653,PAYLOAD,2022-11-10 17:11:29,15.08827599,0.0002084,53.2179,73.3572,46.0343,314.0821,9.1723e-05,1.171e-05,0.0,0 STARLINK-3653,1 52000U 22025AW  22314.71631349  .00001171  00000-0  91723-4 0  9990,2 52000  53.2179  73.3572 0002084  46.0343 314.0821 15.08827599 39035,6917.918000000002,95.438,541.225,538.342,0.0
52000.0,STARLINK-3653,PAYLOAD,2022-11-11 12:16:07,15.08831488,0.000185,53.219,69.79,39.1278,320.9847,7.997399999999999e-05,9.85e-06,0.0,0 STARLINK-3653,1 52000U 22025AW  22315.51119870  .00000985  00000-0  79974-4 0  9995,2 52000  53.2190  69.7900 0001850  39.1278 320.9847 15.08831488 37621,6917.906,95.438,541.0509999999998,538.492,0.0
52000.0,STARLINK-3653,PAYLOAD,2022-11-11 15:26:53,15.08834716,0.0001866,53.2188,69.1951,40.4066,319.7064,0.00011279,1.507e-05,0.0,0 STARLINK-3653,1 52000U 22025AW  22315.64367710  .00001507  00000-0  11279-3 0  9991,2 52000  53.2188  69.1951 0001866  40.4066 319.7064 15.08834716 37641,6917.897,95.438,541.052,538.471,0.0
52000.0,STARLINK-3653,PAYLOAD,2022-11-12 02:34:35,15.08845972,0.0001944,53.2185,67.1141,38.8762,321.237,0.00035127,5.308e-05,0.0,0 STARLINK-3653,1 52000U 22025AW  22316.10735398  .00005308  00000-0  35127-3 0  9995,2 52000  53.2185  67.1141 0001944  38.8762 321.2370 15.08845972 39240,6917.861999999999,95.437,541.072,538.382,0.0
52000.0,STARLINK-3653,PAYLOAD,2022-11-12 13:42:17,15.0884923,0.0001804,53.2181,65.0324,48.957,311.1578,0.00050831,7.813e-05,0.0,0 STARLINK-3653,1 52000U 22025AW  22316.57103644  .00007813  00000-0  50831-3 0  9991,2 52000  53.2181  65.0324 0001804  48.9570 311.1578 15.08849230 37786,6917.852,95.437,540.965,538.469,0.0
52000.0,STARLINK-3653,PAYLOAD,2022-11-13 10:22:17,15.08840914,0.0002171,53.2181,61.1672,30.9615,329.1505,-0.00017535,-3.078e-05,0.0,0 STARLINK-3653,1 52000U 22025AW  22317.43215104 -.00003078  00000-0 -17535-3 0  9997,2 52000  53.2181  61.1672 0002171  30.9615 329.1505 15.08840914 39442,6917.878000000002,95.437,541.244,538.241,0.0
